start=new Date('2023-05-22T00:00:00.000Z').valueOf();
sats=[{"PERIAPSIS":"558.444","INCLINATION":"43.0034","ECCENTRICITY":"0.00008950","RA_OF_ASC_NODE":"110.5284","SITE":"AFETR","REF_FRAME":"TEME","REV_AT_EPOCH":"1771","MEAN_MOTION":"15.02541441","TLE_LINE1":"1 55369U 23013AQ  23141.95053793  .00000442  00000-0  47770-4 0  9998","MEAN_ELEMENT_THEORY":"SGP4","MEAN_ANOMALY":"13.0994","FILE":"3914061","DECAY_DATE":null,"MEAN_MOTION_DOT":"0.00000442","TIME_SYSTEM":"UTC","ARG_OF_PERICENTER":"346.9826","GP_ID":"232287222","NORAD_CAT_ID":"55369","CLASSIFICATION_TYPE":"U","PERIOD":"95.838","MEAN_MOTION_DDOT":"0.0000000000000","APOAPSIS":"559.686","OBJECT_TYPE":"PAYLOAD","LAUNCH_DATE":"2023-01-26","RCS_SIZE":"LARGE","EPOCH":"2023-05-21T22:48:46.477152","OBJECT_NAME":"STARLINK-5644","ELEMENT_SET_NO":"999","CENTER_NAME":"EARTH","EPHEMERIS_TYPE":"0","SEMIMAJOR_AXIS":"6937.200","OBJECT_ID":"2023-013AQ","TLE_LINE2":"2 55369  43.0034 110.5284 0000895 346.9826  13.0994 15.02541441 17714","COUNTRY_CODE":"US","BSTAR":"0.00004777000000"},{"OBJECT_ID":"2023-013AR","SEMIMAJOR_AXIS":"6937.260","EPHEMERIS_TYPE":"0","CENTER_NAME":"EARTH","ELEMENT_SET_NO":"999","BSTAR":"0.00030526000000","TLE_LINE2":"2 55370  43.0007 110.5752 0000604 158.0774 202.0095 15.02521957 17710","COUNTRY_CODE":"US","OBJECT_TYPE":"PAYLOAD","APOAPSIS":"559.544","MEAN_MOTION_DDOT":"0.0000000000000","PERIOD":"95.839","CLASSIFICATION_TYPE":"U","OBJECT_NAME":"STARLINK-5027","EPOCH":"2023-05-21T22:56:46.014432","RCS_SIZE":"LARGE","LAUNCH_DATE":"2023-01-26","MEAN_MOTION_DOT":"0.00003921","DECAY_DATE":null,"FILE":"3914061","NORAD_CAT_ID":"55370","GP_ID":"232285470","ARG_OF_PERICENTER":"158.0774","TIME_SYSTEM":"UTC","SITE":"AFETR","RA_OF_ASC_NODE":"110.5752","ECCENTRICITY":"0.00006040","INCLINATION":"43.0007","PERIAPSIS":"558.706","MEAN_ANOMALY":"202.0095","MEAN_ELEMENT_THEORY":"SGP4","TLE_LINE1":"1 55370U 23013AR  23141.95608813  .00003921  00000-0  30526-3 0  9994","MEAN_MOTION":"15.02521957","REV_AT_EPOCH":"1771","REF_FRAME":"TEME"},{"RCS_SIZE":"LARGE","EPOCH":"2023-05-21T22:35:59.887104","OBJECT_NAME":"STARLINK-5590","LAUNCH_DATE":"2023-01-26","CLASSIFICATION_TYPE":"U","PERIOD":"95.839","APOAPSIS":"559.996","MEAN_MOTION_DDOT":"0.0000000000000","OBJECT_TYPE":"PAYLOAD","TLE_LINE2":"2 55371  43.0026 110.4634 0001280 263.9660  96.1037 15.02527515 18637","COUNTRY_CODE":"US","BSTAR":"-0.00003905300000","EPHEMERIS_TYPE":"0","SEMIMAJOR_AXIS":"6937.243","OBJECT_ID":"2023-013AS","ELEMENT_SET_NO":"999","CENTER_NAME":"EARTH","MEAN_MOTION":"15.02527515","TLE_LINE1":"1 55371U 23013AS  23141.94166536 -.00000731  00000-0 -39053-4 0  9998","MEAN_ELEMENT_THEORY":"SGP4","MEAN_ANOMALY":"96.1037","REF_FRAME":"TEME","REV_AT_EPOCH":"1863","ECCENTRICITY":"0.00012800","RA_OF_ASC_NODE":"110.4634","SITE":"AFETR","PERIAPSIS":"558.220","INCLINATION":"43.0026","GP_ID":"232285720","NORAD_CAT_ID":"55371","ARG_OF_PERICENTER":"263.9660","TIME_SYSTEM":"UTC","MEAN_MOTION_DOT":"-0.00000731","FILE":"3914061","DECAY_DATE":null},{"LAUNCH_DATE":"2023-01-26","EPOCH":"2023-05-21T22:43:59.695680","RCS_SIZE":"LARGE","OBJECT_NAME":"STARLINK-5568","PERIOD":"95.839","CLASSIFICATION_TYPE":"U","OBJECT_TYPE":"PAYLOAD","MEAN_MOTION_DDOT":"0.0000000000000","APOAPSIS":"560.088","TLE_LINE2":"2 55372  43.0043 110.5037 0001399 263.1957  96.8726 15.02524197 17710","COUNTRY_CODE":"US","BSTAR":"-0.00019442000000","ELEMENT_SET_NO":"999","CENTER_NAME":"EARTH","EPHEMERIS_TYPE":"0","OBJECT_ID":"2023-013AT","SEMIMAJOR_AXIS":"6937.253","REF_FRAME":"TEME","REV_AT_EPOCH":"1771","TLE_LINE1":"1 55372U 23013AT  23141.94721870 -.00002828  00000-0 -19442-3 0  9995","MEAN_MOTION":"15.02524197","MEAN_ANOMALY":"96.8726","MEAN_ELEMENT_THEORY":"SGP4","INCLINATION":"43.0043","PERIAPSIS":"558.147","ECCENTRICITY":"0.00013990","SITE":"AFETR","RA_OF_ASC_NODE":"110.5037","ARG_OF_PERICENTER":"263.1957","TIME_SYSTEM":"UTC","GP_ID":"232286972","NORAD_CAT_ID":"55372","FILE":"3914061","DECAY_DATE":null,"MEAN_MOTION_DOT":"-0.00002828"},{"FILE":"3914061","DECAY_DATE":null,"MEAN_MOTION_DOT":"-0.00001420","TIME_SYSTEM":"UTC","ARG_OF_PERICENTER":"266.5374","GP_ID":"232286722","NORAD_CAT_ID":"55373","PERIAPSIS":"558.125","INCLINATION":"43.0038","ECCENTRICITY":"0.00014370","RA_OF_ASC_NODE":"110.4475","SITE":"AFETR","REF_FRAME":"TEME","REV_AT_EPOCH":"1771","MEAN_MOTION":"15.02522814","TLE_LINE1":"1 55373U 23013AU  23141.93944927 -.00001420  00000-0 -90063-4 0  9991","MEAN_ELEMENT_THEORY":"SGP4","MEAN_ANOMALY":"93.5304","ELEMENT_SET_NO":"999","CENTER_NAME":"EARTH","EPHEMERIS_TYPE":"0","SEMIMAJOR_AXIS":"6937.257","OBJECT_ID":"2023-013AU","TLE_LINE2":"2 55373  43.0038 110.4475 0001437 266.5374  93.5304 15.02522814 17713","COUNTRY_CODE":"US","BSTAR":"-0.00009006300000","CLASSIFICATION_TYPE":"U","PERIOD":"95.839","APOAPSIS":"560.119","MEAN_MOTION_DDOT":"0.0000000000000","OBJECT_TYPE":"PAYLOAD","LAUNCH_DATE":"2023-01-26","RCS_SIZE":"LARGE","EPOCH":"2023-05-21T22:32:48.416928","OBJECT_NAME":"STARLINK-5581"},{"FILE":"3914061","DECAY_DATE":null,"MEAN_MOTION_DOT":"0.00001680","TIME_SYSTEM":"UTC","ARG_OF_PERICENTER":"275.1421","GP_ID":"232285971","NORAD_CAT_ID":"55374","PERIAPSIS":"558.058","INCLINATION":"43.0028","ECCENTRICITY":"0.00015020","RA_OF_ASC_NODE":"110.4871","SITE":"AFETR","REF_FRAME":"TEME","REV_AT_EPOCH":"1771","MEAN_MOTION":"15.02529895","TLE_LINE1":"1 55374U 23013AV  23141.94499090  .00001680  00000-0  13940-3 0  9993","MEAN_ELEMENT_THEORY":"SGP4","MEAN_ANOMALY":"84.9250","ELEMENT_SET_NO":"999","CENTER_NAME":"EARTH","EPHEMERIS_TYPE":"0","SEMIMAJOR_AXIS":"6937.235","OBJECT_ID":"2023-013AV","COUNTRY_CODE":"US","TLE_LINE2":"2 55374  43.0028 110.4871 0001502 275.1421  84.9250 15.02529895 17715","BSTAR":"0.00013940000000","CLASSIFICATION_TYPE":"U","PERIOD":"95.838","APOAPSIS":"560.142","MEAN_MOTION_DDOT":"0.0000000000000","OBJECT_TYPE":"PAYLOAD","LAUNCH_DATE":"2023-01-26","RCS_SIZE":"LARGE","EPOCH":"2023-05-21T22:40:47.213760","OBJECT_NAME":"STARLINK-5578"},{"ARG_OF_PERICENTER":"267.2224","TIME_SYSTEM":"UTC","GP_ID":"232286221","NORAD_CAT_ID":"55375","FILE":"3914061","DECAY_DATE":null,"MEAN_MOTION_DOT":"-0.00000698","REF_FRAME":"TEME","REV_AT_EPOCH":"1771","MEAN_MOTION":"15.02531452","TLE_LINE1":"1 55375U 23013AW  23141.93389397 -.00000698  00000-0 -36574-4 0  9990","MEAN_ANOMALY":"92.8481","MEAN_ELEMENT_THEORY":"SGP4","PERIAPSIS":"558.258","INCLINATION":"43.0033","ECCENTRICITY":"0.00012070","RA_OF_ASC_NODE":"110.4056","SITE":"AFETR","TLE_LINE2":"2 55375  43.0033 110.4056 0001207 267.2224  92.8481 15.02531452 17718","COUNTRY_CODE":"US","BSTAR":"-0.00003657400000","ELEMENT_SET_NO":"999","CENTER_NAME":"EARTH","EPHEMERIS_TYPE":"0","SEMIMAJOR_AXIS":"6937.231","OBJECT_ID":"2023-013AW","LAUNCH_DATE":"2023-01-26","RCS_SIZE":"LARGE","EPOCH":"2023-05-21T22:24:48.439008","OBJECT_NAME":"STARLINK-5588","CLASSIFICATION_TYPE":"U","PERIOD":"95.838","APOAPSIS":"559.933","MEAN_MOTION_DDOT":"0.0000000000000","OBJECT_TYPE":"PAYLOAD"},{"FILE":"3914061","DECAY_DATE":null,"MEAN_MOTION_DOT":"-0.00002201","ARG_OF_PERICENTER":"269.0083","TIME_SYSTEM":"UTC","GP_ID":"232286472","NORAD_CAT_ID":"55376","INCLINATION":"43.0037","PERIAPSIS":"552.086","ECCENTRICITY":"0.00014920","SITE":"AFETR","RA_OF_ASC_NODE":"84.8342","REF_FRAME":"TEME","REV_AT_EPOCH":"1800","TLE_LINE1":"1 55376U 23013AX  23141.87621709 -.00002201  00000-0 -14016-3 0  9998","MEAN_MOTION":"15.04474773","MEAN_ELEMENT_THEORY":"SGP4","MEAN_ANOMALY":"91.0589","ELEMENT_SET_NO":"999","CENTER_NAME":"EARTH","EPHEMERIS_TYPE":"0","OBJECT_ID":"2023-013AX","SEMIMAJOR_AXIS":"6931.255","TLE_LINE2":"2 55376  43.0037  84.8342 0001492 269.0083  91.0589 15.04474773 18001","COUNTRY_CODE":"US","BSTAR":"-0.00014016000000","PERIOD":"95.714","CLASSIFICATION_TYPE":"U","OBJECT_TYPE":"PAYLOAD","MEAN_MOTION_DDOT":"0.0000000000000","APOAPSIS":"554.155","LAUNCH_DATE":"2023-01-26","EPOCH":"2023-05-21T21:01:45.156576","RCS_SIZE":"LARGE","OBJECT_NAME":"STARLINK-5586"},{"MEAN_ELEMENT_THEORY":"SGP4","MEAN_ANOMALY":"87.1413","MEAN_MOTION":"15.02525246","TLE_LINE1":"1 55377U 23013AY  23141.92057842 -.00000544  00000-0 -25208-4 0  9990","REV_AT_EPOCH":"1771","REF_FRAME":"TEME","RA_OF_ASC_NODE":"110.3044","SITE":"AFETR","ECCENTRICITY":"0.00012470","PERIAPSIS":"558.250","INCLINATION":"43.0036","NORAD_CAT_ID":"55377","GP_ID":"232287223","TIME_SYSTEM":"UTC","ARG_OF_PERICENTER":"272.9287","MEAN_MOTION_DOT":"-0.00000544","DECAY_DATE":null,"FILE":"3914061","OBJECT_NAME":"STARLINK-5567","RCS_SIZE":"LARGE","EPOCH":"2023-05-21T22:05:37.975488","LAUNCH_DATE":"2023-01-26","APOAPSIS":"559.980","MEAN_MOTION_DDOT":"0.0000000000000","OBJECT_TYPE":"PAYLOAD","CLASSIFICATION_TYPE":"U","PERIOD":"95.839","BSTAR":"-0.00002520800000","TLE_LINE2":"2 55377  43.0036 110.3044 0001247 272.9287  87.1413 15.02525246 17711","COUNTRY_CODE":"US","SEMIMAJOR_AXIS":"6937.250","OBJECT_ID":"2023-013AY","EPHEMERIS_TYPE":"0","CENTER_NAME":"EARTH","ELEMENT_SET_NO":"999"},{"TLE_LINE2":"2 55378  43.0036 113.3219 0001076 281.9159  78.1563 15.02325481 18061","COUNTRY_CODE":"US","BSTAR":"-0.00200900000000","EPHEMERIS_TYPE":"0","SEMIMAJOR_AXIS":"6937.865","OBJECT_ID":"2023-013AZ","ELEMENT_SET_NO":"999","CENTER_NAME":"EARTH","RCS_SIZE":"LARGE","EPOCH":"2023-05-21T09:44:03.795936","OBJECT_NAME":"STARLINK-5572","LAUNCH_DATE":"2023-01-26","CLASSIFICATION_TYPE":"U","PERIOD":"95.851","APOAPSIS":"560.476","MEAN_MOTION_DDOT":"0.0000000000000","OBJECT_TYPE":"PAYLOAD","GP_ID":"232254440","NORAD_CAT_ID":"55378","ARG_OF_PERICENTER":"281.9159","TIME_SYSTEM":"UTC","MEAN_MOTION_DOT":"-0.00027086","FILE":"3913789","DECAY_DATE":null,"MEAN_MOTION":"15.02325481","TLE_LINE1":"1 55378U 23013AZ  23141.40559949 -.00027086  00000-0 -20090-2 0  9991","MEAN_ANOMALY":"78.1563","MEAN_ELEMENT_THEORY":"SGP4","REF_FRAME":"TEME","REV_AT_EPOCH":"1806","ECCENTRICITY":"0.00010760","RA_OF_ASC_NODE":"113.3219","SITE":"AFETR","PERIAPSIS":"558.983","INCLINATION":"43.0036"}];
